NORAD_CAT_ID,OBJECT_NAME,OBJECT_TYPE,EPOCH,MEAN_MOTION,ECCENTRICITY,INCLINATION,RA_OF_ASC_NODE,ARG_OF_PERICENTER,MEAN_ANOMALY,BSTAR,MEAN_MOTION_DOT,MEAN_MOTION_DDOT,TLE_LINE0,TLE_LINE1,TLE_LINE2,SEMIMAJOR_AXIS,PERIOD,APOGEE,PERIGEE,DECAYED
53924.0,STARLINK-5001,PAYLOAD,2023-08-05 07:20:32,15.08840705,0.0001018,53.2158,241.9937,90.4005,269.7103,2.6569e-05,1.35e-06,0.0,0 STARLINK-5001,1 53924U 22119AQ  23217.30592931  .00000135  00000-0  26569-4 0  9996,2 53924  53.2158 241.9937 0001018  90.4005 269.7103 15.08840705 48459,6917.878,95.438,540.447,539.039,0.0
53924.0,STARLINK-5001,PAYLOAD,2023-08-06 08:46:42,15.08839057,0.0001057,53.2154,237.2361,90.7896,269.3217,0.00010944,1.454e-05,0.0,0 STARLINK-5001,1 53924U 22119AQ  23218.36577004  .00001454  00000-0  10944-3 0  9991,2 53924  53.2154 237.2361 0001057  90.7896 269.3217 15.08839057 48616,6917.883,95.438,540.479,539.017,0.0
53924.0,STARLINK-5001,PAYLOAD,2023-08-07 10:12:53,15.08839545,0.0001062,53.2156,232.4784,94.8259,265.2855,1.4822e-05,-5.2e-07,0.0,0 STARLINK-5001,1 53924U 22119AQ  23219.42561375 -.00000052  00000-0  14822-4 0  9997,2 53924  53.2156 232.4784 0001062  94.8259 265.2855 15.08839545 48770,6917.882,95.438,540.481,539.012,0.0
53924.0,STARLINK-5001,PAYLOAD,2023-08-08 18:00:35,15.08839811,9.8e-05,53.2151,226.5303,93.5095,266.6009,3.7281e-05,3.06e-06,0.0,0 STARLINK-5001,1 53924U 22119AQ  23220.75041229  .00000306  00000-0  37281-4 0  9991,2 53924  53.2151 226.5303 0000980  93.5095 266.6009 15.08839811 48972,6917.881,95.438,540.424,539.068,0.0
53924.0,STARLINK-5001,PAYLOAD,2023-08-10 00:12:55,15.08840076,9.64e-05,53.2147,220.8796,93.505,266.6053,3.1439e-05,2.13e-06,0.0,0 STARLINK-5001,1 53924U 22119AQ  23222.00897311  .00000213  00000-0  31439-4 0  9998,2 53924  53.2147 220.8796 0000964  93.5050 266.6053 15.08840076 49169,6917.88,95.438,540.412,539.078,0.0
53924.0,STARLINK-5001,PAYLOAD,2023-08-11 06:25:15,15.08834829,0.0001053,53.2144,215.2294,87.0985,273.0127,6.202e-05,6.99e-06,0.0,0 STARLINK-5001,1 53924U 22119AQ  23223.26753597  .00000699  00000-0  62020-4 0  9992,2 53924  53.2144 215.2294 0001053  87.0985 273.0127 15.08834829 49356,6917.896,95.438,540.49,539.033,0.0
53924.0,STARLINK-5001,PAYLOAD,2023-08-11 15:57:34,15.08822008,0.0001009,53.2131,213.445,89.8915,270.2193,0.00024027,3.536e-05,0.0,0 STARLINK-5001,1 53924U 22119AQ  23223.66497989  .00003536  00000-0  24027-3 0  9993,2 53924  53.2131 213.4450 0001009  89.8915 270.2193 15.08822008 49415,6917.935,95.439,540.498,539.102,0.0
53924.0,STARLINK-5001,PAYLOAD,2023-08-11 23:54:29,15.08837649,0.000116,53.213,211.9583,88.9831,271.1294,-3.1724e-06,-3.38e-06,0.0,0 STARLINK-5001,1 53924U 22119AQ  23223.99617722 -.00000338  00000-0 -31724-5 0  9991,2 53924  53.2130 211.9583 0001160  88.9831 271.1294 15.08837649 49463,6917.888,95.438,540.555,538.95,0.0
53924.0,STARLINK-5001,PAYLOAD,2023-08-13 01:20:39,15.08837458,0.0001141,53.2157,207.2017,91.0325,269.0798,4.3384e-05,4.03e-06,0.0,0 STARLINK-5001,1 53924U 22119AQ  23225.05601728  .00000403  00000-0  43384-4 0  9994,2 53924  53.2157 207.2017 0001141  91.0325 269.0798 15.08837458 49625,6917.888,95.438,540.542,538.964,0.0
53924.0,STARLINK-5001,PAYLOAD,2023-08-14 02:46:50,15.0883516,0.0001181,53.2161,202.4441,94.0099,266.1029,2.0042e-05,3.1e-07,0.0,0 STARLINK-5001,1 53924U 22119AQ  23226.11586096  .00000031  00000-0  20042-4 0  9995,2 53924  53.2161 202.4441 0001181  94.0099 266.1029 15.08835160 49783,6917.895,95.438,540.577,538.943,0.0
53924.0,STARLINK-5001,PAYLOAD,2023-08-15 07:23:46,15.0885408,0.0001689,53.2156,197.0907,100.2627,259.8555,-0.00013229,-2.394e-05,0.0,0 STARLINK-5001,1 53924U 22119AQ  23227.30817435 -.00002394  00000-0 -13229-3 0  9995,2 53924  53.2156 197.0907 0001689 100.2627 259.8555 15.08854080 49968,6917.837,95.437,540.871,538.534,0.0
53924.0,STARLINK-5001,PAYLOAD,2023-08-15 15:20:42,15.08834822,0.000121,53.216,195.6023,89.612,270.5011,3.1156e-05,2.08e-06,0.0,0 STARLINK-5001,1 53924U 22119AQ  23227.63938233  .00000208  00000-0  31156-4 0  9991,2 53924  53.2160 195.6023 0001210  89.6120 270.5011 15.08834822 50011,6917.896,95.438,540.598,538.924,0.0
53924.0,STARLINK-5001,PAYLOAD,2023-08-16 02:28:24,15.08847757,0.0001224,53.2148,193.5214,104.7679,255.3449,-6.7301e-05,-1.359e-05,0.0,0 STARLINK-5001,1 53924U 22119AQ  23228.10305879 -.00001359  00000-0 -67301-4 0  9999,2 53924  53.2148 193.5214 0001224 104.7679 255.3449 15.08847757 50083,6917.857,95.437,540.568,538.875,0.0
53924.0,STARLINK-5001,PAYLOAD,2023-08-17 03:54:34,15.08846437,0.0001247,53.2159,188.7636,89.9485,270.1649,7.8941e-05,9.69e-06,0.0,0 STARLINK-5001,1 53924U 22119AQ  23229.16289358  .00000969  00000-0  78941-4 0  9995,2 53924  53.2159 188.7636 0001247  89.9485 270.1649 15.08846437 50242,6917.861,95.437,540.588,538.863,0.0
53924.0,STARLINK-5001,PAYLOAD,2023-08-18 02:09:58,15.08828449,0.000135,53.2165,184.6006,94.65,265.4646,0.0001293,1.77e-05,0.0,0 STARLINK-5001,1 53924U 22119AQ  23230.09026411  .00001770  00000-0  12930-3 0  9994,2 53924  53.2165 184.6006 0001350  94.6500 265.4646 15.08828449 50383,6917.916,95.438,540.715,538.847,0.0
53924.0,STARLINK-5001,PAYLOAD,2023-08-18 06:56:07,15.08840053,0.0001386,53.2168,183.7079,100.2186,259.8963,-2.9034e-05,-7.5e-06,0.0,0 STARLINK-5001,1 53924U 22119AQ  23230.28898068 -.00000750  00000-0 -29034-4 0  9993,2 53924  53.2168 183.7079 0001386 100.2186 259.8963 15.08840053 50417,6917.88,95.438,540.704,538.786,0.0
53924.0,STARLINK-5001,PAYLOAD,2023-08-19 13:08:27,15.08840259,0.0001317,53.2171,178.0599,93.4992,266.6151,-3.9001e-05,-9.09e-06,0.0,0 STARLINK-5001,1 53924U 22119AQ  23231.54754320 -.00000909  00000-0 -39001-4 0  9996,2 53924  53.2171 178.0599 0001317  93.4992 266.6151 15.08840259 50601,6917.88,95.438,540.656,538.834,0.0
53924.0,STARLINK-5001,PAYLOAD,2023-08-20 01:51:33,15.08832516,0.0001492,53.2176,175.6805,94.9377,265.1785,2.6679e-05,1.37e-06,0.0,0 STARLINK-5001,1 53924U 22119AQ  23232.07746954  .00000137  00000-0  26679-4 0  9997,2 53924  53.2176 175.6805 0001492  94.9377 265.1785 15.08832516 50688,6917.903,95.438,540.8,538.736,0.0
53924.0,STARLINK-5001,PAYLOAD,2023-08-21 01:42:20,15.08840607,0.0001463,53.2185,171.2207,97.9685,262.1473,3.4184e-05,2.56e-06,0.0,0 STARLINK-5001,1 53924U 22119AQ  23233.07106776  .00000256  00000-0  34184-4 0  9992,2 53924  53.2185 171.2207 0001463  97.9685 262.1473 15.08840607 50837,6917.879,95.438,540.756,538.731,0.0
53924.0,STARLINK-5001,PAYLOAD,2023-08-22 04:43:53,15.08840868,0.0001578,53.2186,166.1638,85.5883,274.5289,6.3107e-05,7.17e-06,0.0,0 STARLINK-5001,1 53924U 22119AQ  23234.19714910  .00000717  00000-0  63107-4 0  9990,2 53924  53.2186 166.1638 0001578  85.5883 274.5289 15.08840868 51000,6917.878,95.437,540.834,538.651,0.0
53924.0,STARLINK-5001,PAYLOAD,2023-08-24 04:25:27,15.08841092,0.0001527,53.2186,157.2417,115.8541,244.2609,-3.8066e-05,-8.94e-06,0.0,0 STARLINK-5001,1 53924U 22119AQ  23236.18435106 -.00000894  00000-0 -38066-4 0  9992,2 53924  53.2186 157.2417 0001527 115.8541 244.2609 15.08841092 51727,6917.877,95.437,540.798,538.686,0.0
53924.0,STARLINK-5001,PAYLOAD,2023-08-25 01:05:28,15.08848073,0.0001476,53.2179,153.3776,86.9424,273.1737,2.9963e-05,1.89e-06,0.0,0 STARLINK-5001,1 53924U 22119AQ  23237.04546610  .00000189  00000-0  29963-4 0  9992,2 53924  53.2179 153.3776 0001476  86.9424 273.1737 15.08848073 51432,6917.856,95.437,540.742,538.7,0.0
53924.0,STARLINK-5001,PAYLOAD,2023-08-25 04:16:14,15.08848276,0.000135,53.2179,152.7825,94.3502,265.7644,4.5582e-05,4.38e-06,0.0,0 STARLINK-5001,1 53924U 22119AQ  23237.17794423  .00000438  00000-0  45582-4 0  9995,2 53924  53.2179 152.7825 0001350  94.3502 265.7644 15.08848276 51878,6917.855,95.437,540.654,538.786,0.0
53924.0,STARLINK-5001,PAYLOAD,2023-08-26 02:31:38,15.08848523,0.000133,53.2184,148.6195,90.7557,269.3588,0.00011238,1.501e-05,0.0,0 STARLINK-5001,1 53924U 22119AQ  23238.10530212  .00001501  00000-0  11238-3 0  9995,2 53924  53.2184 148.6195 0001330  90.7557 269.3588 15.08848523 51597,6917.854,95.437,540.639,538.799,0.0
53924.0,STARLINK-5001,PAYLOAD,2023-08-26 18:25:30,15.08842704,0.0001511,53.22,145.6488,94.5026,265.6139,-8.6567e-05,-1.666e-05,0.0,0 STARLINK-5001,1 53924U 22119AQ  23238.76771319 -.00001666  00000-0 -86567-4 0  9994,2 53924  53.2200 145.6488 0001511  94.5026 265.6139 15.08842704 51699,6917.872,95.437,540.782,538.692,0.0
53924.0,STARLINK-5001,PAYLOAD,2023-08-26 21:36:16,15.08841522,0.0001552,53.2196,145.0543,107.5322,252.584,-7.5549e-05,-1.49e-05,0.0,0 STARLINK-5001,1 53924U 22119AQ  23238.90019321 -.00001490  00000-0 -75549-4 0  9991,2 53924  53.2196 145.0543 0001552 107.5322 252.5840 15.08841522 52139,6917.876,95.437,540.814,538.667,0.0
53924.0,STARLINK-5001,PAYLOAD,2023-08-27 02:22:26,15.08841897,0.0001537,53.2198,144.1641,107.1773,252.9388,-6.6767e-05,-1.35e-05,0.0,0 STARLINK-5001,1 53924U 22119AQ  23239.09891205 -.00001350  00000-0 -66767-4 0  9998,2 53924  53.2198 144.1641 0001537 107.1773 252.9388 15.08841897 52168,6917.875,95.437,540.803,538.676,0.0
53924.0,STARLINK-5001,PAYLOAD,2023-08-27 21:27:04,15.08840383,0.0001432,53.2193,140.5961,118.4971,241.6165,-9.8809e-05,-1.86e-05,0.0,0 STARLINK-5001,1 53924U 22119AQ  23239.89379635 -.00001860  00000-0 -98809-4 0  9992,2 53924  53.2193 140.5961 0001432 118.4971 241.6165 15.08840383 52287,6917.879,95.438,540.735,538.754,0.0
53924.0,STARLINK-5001,PAYLOAD,2023-08-28 02:13:13,15.08841387,0.0001104,53.2178,139.7039,94.2408,265.871,-4.6005e-05,-1.02e-05,0.0,0 STARLINK-5001,1 53924U 22119AQ  23240.09251462 -.00001020  00000-0 -46005-4 0  9992,2 53924  53.2178 139.7039 0001104  94.2408 265.8710 15.08841387 51893,6917.876,95.437,540.505,538.977,0.0
53924.0,STARLINK-5001,PAYLOAD,2023-08-28 21:17:52,15.08797283,0.0001272,53.2182,136.1325,91.7132,268.4006,0.00026511,3.929e-05,0.0,0 STARLINK-5001,1 53924U 22119AQ  23240.88741536  .00003929  00000-0  26511-3 0  9992,2 53924  53.2182 136.1325 0001272  91.7132 268.4006 15.08797283 52432,6918.011,95.44,540.756,538.996,0.0
